#cP2023  2 13  0  0  0.00000000      96 ORBIT IGS20 HLM  IGS
## 2249  86400.00000000   900.00000000 59988 0.0000000000000
+   32   G01G02G03G04G05G06G07G08G09G10G11G12G13G14G15G16G17
+        G18G19G20G21G22G23G24G25G26G27G28G29G30G31G32  0  0
+          0  0  0  0  0  0  0  0  0  0  0  0  0  0  0  0  0
+          0  0  0  0  0  0  0  0  0  0  0  0  0  0  0  0  0
+          0  0  0  0  0  0  0  0  0  0  0  0  0  0  0  0  0
++         2  2  2  3  2  2  2  2  3  2  2  2  2  2  2  2  2
++         2  2  2  2  3  2  2  2  2  2  3  2  2  2  3  0  0
++         0  0  0  0  0  0  0  0  0  0  0  0  0  0  0  0  0
++         0  0  0  0  0  0  0  0  0  0  0  0  0  0  0  0  0
++         0  0  0  0  0  0  0  0  0  0  0  0  0  0  0  0  0
%c G  cc GPS ccc cccc cccc cccc cccc ccccc ccccc ccccc ccccc
%c cc cc ccc ccc cccc cccc cccc cccc ccccc ccccc ccccc ccccc
%f  1.2500000  1.025000000  0.00000000000  0.000000000000000
%f  0.0000000  0.000000000  0.00000000000  0.000000000000000
%i    0    0    0    0      0      0      0      0         0
%i    0    0    0    0      0      0      0      0         0
/* RAPID ORBIT COMBINATION FROM WEIGHTED AVERAGE OF:        
/* cod emr esa gfz grg jpl ngs sio usn whu                  
/* REFERENCED TO IGS TIME (IGST) AND TO WEIGHTED MEAN POLE: 
/* PCV:IGS20_2233 OL/AL:FES2014b NONE     Y  ORB:CMB CLK:CMB
*  2023  2 13 16 30  0.00000000
PG01  -3952.488814 -14220.746154 -22405.480528    212.938644  7  7  4 105       
PG02   7738.236155  13559.842235  22095.379423   -621.100650  3  5  5  94       
PG03 -10846.885418 -22098.328043 -10242.575580   -363.553542  6  8  8  79       
PG04  -1668.480151 -22909.133984  13246.462723    -28.301078  5 11  8 104       
PG05  -2693.278502  16968.596727  20053.086908   -115.782924  3  6  3 111       
PG06 -26049.495659   5434.782516   -179.344830    571.937037  6  5  4  57       
PG07 -18431.485841  -8871.100618  17629.274285    241.662369  4  7  6  79       
PG08   5926.271391 -25597.412565  -1987.789340   -108.342535  6  6  6  69       
PG09 -10298.510996 -14390.228963  19717.268296   -218.910950  8  8  7  82       
PG10  20558.755914   7138.464913 -15264.827215    -24.565935  6  5  6  85       
PG11 -20051.443025  12136.001333  12474.427541   -103.286048  6  9  6 101       
PG12   7767.530378  22757.150399 -11670.490592   -339.918862  6  7  2  96       
PG13 -13295.796728  22590.819553   3394.555499    475.491039  5  9  4  47       
PG14 -20873.900944  -9613.007605 -13420.388749    -27.999367  6  6  7  97       
PG15  -2404.770342  26201.282147  -2738.416618     13.121304  5  6  5  87       
PG16   6858.423567 -14602.808305  20709.136474   -520.246518  6  6  3  96       
PG17 -15337.698630   -215.168076 -21264.178163    699.779609  6  2  5 120       
PG18  21008.094675   6245.299403  15107.971027   -139.167508  6  5  5 105       
PG19 -17352.481409  10222.205369 -17400.526017    277.205499  5  6  5 101       
PG20 -12453.221272   9766.241627  21342.883517    450.927036  6  5  5 117       
PG21   4931.151680 -16019.831903 -19803.796740    153.962742  5  6  5 108       
PG22  16688.812986 -14198.752607 -14452.284406    426.286436  8 11  8  69       
PG23  20660.056143  15874.237177  -5538.355060      5.988447  5  6  6  77       
PG24     94.432631  16395.222670 -21190.636990    -72.209427  4  4  6  95       
PG25  16111.693708  21039.032410  -3672.783176    419.778466  6  7  4  68       
PG26  17113.249944  -3950.080207  19900.180128    241.444142  4  4  5  99       
PG27  12702.086922 -21429.184284   8349.547538    103.242792  2  4  5  85       
PG28  25973.261493  -5025.417711  -2360.195763     10.873097  9  6  6  65       
PG29   6516.027997  17600.350245  18713.587236   -585.930823  4  6  6  87       
PG30 -25642.323661   -268.174681   7511.648514   -530.431655  3  5  6  62       
PG31  26031.769045  -6205.209869   1460.416057   -209.151509  7  7  5  88       
PG32  16125.915606  -3258.967264 -20644.013571   -395.047343  8  9 11  68       
*  2023  2 13 16 45  0.00000000
PG01  -1533.815103 -14780.276343 -22307.736160    212.934835  7  7  3 103       
PG02   5472.193797  14363.256553  22290.042879   -621.098564  3  5  4 103       
PG03  -9825.891585 -21292.263718 -12702.899517   -363.549514  6  7  8  95       
PG04  -1045.138167 -24160.987530  10861.349755    -28.293746  6 11  8  96       
PG05  -4493.395444  15403.488920  20975.563800   -115.784391  3  7  3 113       
PG06 -25902.757014   5225.143610  -3076.193001    571.940960  6  5  4  80       
PG07 -16509.667721  -9479.971327  19144.732144    241.655863  4  7  6  82       
PG08   6218.752698 -25582.696795    889.558531   -108.344393  6  6  6  85       
PG09  -9624.657742 -16484.989214  18372.974988   -218.904666  9  8  7 113       
PG10  21600.298672   8406.496509 -13074.437070    -24.567109  5  5  6  69       
PG11 -21353.875108  12183.588175  10020.519270   -103.295248  6  9  6 101       
PG12   6708.247485  21789.174221 -13990.521235   -339.922927  6  7  2  93       
PG13 -13288.473056  21970.277351   6208.982512    475.496938  4  8  4  77       
PG14 -21650.993418 -10801.370789 -11095.390452    -27.991356  6  6  7 102       
PG15  -2772.495717  26258.846696     69.538074     13.124189  4  7  4  76       
PG16   8484.609587 -12733.880648  21362.708529   -520.244873  6  6  2  98       
PG17 -14527.709448  -2627.018529 -21651.616726    699.781958  6     6 118       
PG18  19257.461269   6804.407316  17060.191751   -139.181737  5  4  5 109       
PG19 -16713.080362   8271.385676 -19032.660120    277.209948  5  7  5 109       
PG20 -14356.512087   8287.987674  20745.030418    450.924322  6  4  5 115       
PG21   7186.227943 -16635.799445 -18530.424289    153.963442  5  6  5 114       
PG22  16229.152455 -12400.562144 -16449.389509    426.293529  8 10  8  94       
PG23  20853.961640  16350.699954  -2719.848484      5.989837  5  6  6  68       
PG24  -2136.255615  17075.056206 -20486.113116    -72.223785  4  5  6 100       
PG25  15558.900861  20830.113597  -6421.056838    419.781408  6  7  4  54       
PG26  18689.568244  -2365.376614  18736.174401    241.444412  4  3  5 103       
PG27  12629.177178 -20260.662580  10944.937836    103.234652  2  5  5  93       
PG28  25633.641955  -4665.027285  -5174.626457     10.887321  9  5  6  83       
PG29   5697.131053  19486.930463  17033.867732   -585.932655  3  7  6  87       
PG30 -24746.553202   -773.388685  10055.398083   -530.430567  4  5  6  67       
PG31  26109.004614  -5978.440363  -1356.061391   -209.152330  7  6  5  67       
PG32  15557.038001   -885.703492 -21320.536138   -395.057829  8  9 10  75       
*  2023  2 13 17  0  0.00000000
PG01    821.872746 -15469.413855 -21836.502175    212.931073  6  7  3  95       
PG02   3254.362027  15289.560656  22122.609589   -621.096157  3  6  4 104       
PG03  -8566.028917 -20365.308539 -14947.286600   -363.545465  5  7  7 105       
PG04   -556.854906 -25171.176132   8288.262800    -28.286430  6 12  7  91       
PG05  -6437.043103  13880.756005  21530.900900   -115.785780  4  7  4 117       
PG06 -25457.749115   4909.485370  -5920.342350    571.944856  6  5  4  63       
PG07 -14477.636219 -10233.975009  20346.514452    241.649703  4  7  6  79       
PG08   6450.282133 -25260.630701   3751.208525   -108.345138  6  6  6  85       
PG09  -9091.569969 -18443.857758  16710.163735   -218.898385  9  8  7 110       
PG10  22515.869533   9438.073956 -10660.314182    -24.568803  3  5  6  80       
PG11 -22373.819201  12226.010535   7393.929849   -103.304376  5  9  6  96       
PG12   5429.509020  20701.026084 -16074.836923   -339.926987  6  7  2  98       
PG13 -13206.598544  21053.594500   8914.781860    475.502185  2  8  5  89       
PG14 -22291.578141 -11758.125784  -8580.680765    -27.983333  5  6  7  89       
PG15  -3115.696078  26015.575931   2876.231613     13.127131  4  7  4  64       
PG16  10238.747898 -10915.362364  21636.748144   -520.243387  6  6  2  94       
PG17 -13840.828070  -5101.426462 -21651.238791    699.784128  6  1  6 117       
PG18  17343.401728   7517.085786  18720.534982   -139.196021  5  4  5 116       
PG19 -16129.041394   6134.565791 -20340.426030    277.214465  5  7  4  91       
PG20 -16258.986478   6952.657303  19790.003328    450.922173  6  3  5 115       
PG21   9254.903085 -17299.125700 -16913.995195    153.963637  5  6  5 115       
PG22  15800.128337 -10375.391958 -18152.440419    426.300528  7 10  9  75       
PG23  20829.546418  16607.082631    145.062287      5.991243  5  5  6  69       
PG24  -4246.061882  17825.786873 -19436.692126    -72.238131  5  4  6  79       
PG25  14772.661171  20448.639664  -9061.534896    419.784345  6  7  4  64       
PG26  20221.530687   -954.400627  17250.084956    241.444686  4  3  5 100       
PG27  12557.764445 -18808.769509  13345.521515    103.226449  3  5  5  93       
PG28  25018.194933  -4181.573089  -7900.029336     10.901562  8  4  6  56       
PG29   5041.590532  21216.282816  15059.088855   -585.934526  3  7  5  95       
PG30 -23613.066438  -1402.213956  12429.213842   -530.429474  3  5  6  60       
PG31  25896.788141  -5668.431525  -4149.878855   -209.153475  7  5  5  37       
PG32  15099.580456   1566.740454 -21623.834094   -395.068339  8  9  9  61       
EOF
